{
  "type": "FeatureCollection",
  "features": [
    {
      "type": "Feature",
      "properties": {
        "norad_id": 66775,
        "name": "PHI 1",
        "group": "last-30-days",
        "lat": 41.807117099933514,
        "lon": 65.99938351678433,
        "alt_km": 504.70034292208766,
        "timestamp": "2025-12-27T03:58:42.931950+00:00",
        "meta_object_name": "PHI 1",
        "meta_object_id": "2025-276DP",
        "meta_epoch": "2025-12-26T18:18:19.806336",
        "meta_mean_motion": 15.18705484,
        "meta_eccentricity": 0.0002585,
        "meta_inclination": 97.4332,
        "meta_ra_of_asc_node": 72.3083,
        "meta_arg_of_pericenter": 60.4679,
        "meta_mean_anomaly": 299.6813,
        "meta_ephemeris_type": 0,
        "meta_classification_type": "U",
        "meta_norad_cat_id": 66775,
        "meta_element_set_no": 999,
        "meta_rev_at_epoch": 425,
        "meta_bstar": 0.00054965,
        "meta_mean_motion_dot": 0.00011347,
        "meta_mean_motion_ddot": 0,
        "tle_line1": "1 66775U 25276DP  25360.76272924  .00011347  00000+0  54965-3 0  9995",
        "tle_line2": "2 66775  97.4332  72.3083 0002585  60.4679 299.6813 15.18705484  4258"
      },
      "geometry": {
        "type": "Point",
        "coordinates": [
          65.99938351678433,
          41.807117099933514
        ]
      }
    },
    {
      "type": "Feature",
      "properties": {
        "norad_id": 66776,
        "name": "TRANSPORTER-15DQ",
        "group": "last-30-days",
        "lat": 44.486529636441674,
        "lon": 65.34689136234114,
        "alt_km": 504.2078522157399,
        "timestamp": "2025-12-27T03:58:42.931959+00:00",
        "meta_object_name": "TRANSPORTER-15DQ",
        "meta_object_id": "2025-276DQ",
        "meta_epoch": "2025-12-26T18:17:37.934304",
        "meta_mean_motion": 15.18756731,
        "meta_eccentricity": 0.0002769,
        "meta_inclination": 97.4373,
        "meta_ra_of_asc_node": 72.3218,
        "meta_arg_of_pericenter": 77.0384,
        "meta_mean_anomaly": 283.1159,
        "meta_ephemeris_type": 0,
        "meta_classification_type": "U",
        "meta_norad_cat_id": 66776,
        "meta_element_set_no": 999,
        "meta_rev_at_epoch": 425,
        "meta_bstar": 0.00048181,
        "meta_mean_motion_dot": 9.951e-05,
        "meta_mean_motion_ddot": 0,
        "tle_line1": "1 66776U 25276DQ  25360.76224461  .00009951  00000+0  48181-3 0  9990",
        "tle_line2": "2 66776  97.4373  72.3218 0002769  77.0384 283.1159 15.18756731  4257"
      },
      "geometry": {
        "type": "Point",
        "coordinates": [
          65.34689136234114,
          44.486529636441674
        ]
      }
    },
    {
      "type": "Feature",
      "properties": {
        "norad_id": 66777,
        "name": "TRANSPORTER-15DR",
        "group": "last-30-days",
        "lat": 60.42848500511274,
        "lon": 59.43031004105881,
        "alt_km": 501.1519748414903,
        "timestamp": "2025-12-27T03:58:42.931968+00:00",
        "meta_object_name": "TRANSPORTER-15DR",
        "meta_object_id": "2025-276DR",
        "meta_epoch": "2025-12-26T19:48:17.519328",
        "meta_mean_motion": 15.19013424,
        "meta_eccentricity": 0.0003478,
        "meta_inclination": 97.4461,
        "meta_ra_of_asc_node": 72.4208,
        "meta_arg_of_pericenter": 103.5944,
        "meta_mean_anomaly": 256.5678,
        "meta_ephemeris_type": 0,
        "meta_classification_type": "U",
        "meta_norad_cat_id": 66777,
        "meta_element_set_no": 999,
        "meta_rev_at_epoch": 426,
        "meta_bstar": 0.00065468,
        "meta_mean_motion_dot": 0.00013653,
        "meta_mean_motion_ddot": 0,
        "tle_line1": "1 66777U 25276DR  25360.82520277  .00013653  00000+0  65468-3 0  9993",
        "tle_line2": "2 66777  97.4461  72.4208 0003478 103.5944 256.5678 15.19013424  4268"
      },
      "geometry": {
        "type": "Point",
        "coordinates": [
          59.43031004105881,
          60.42848500511274
        ]
      }
    },
    {
      "type": "Feature",
      "properties": {
        "norad_id": 66778,
        "name": "TRANSPORTER-15DS",
        "group": "last-30-days",
        "lat": -50.53555929759589,
        "lon": -116.47836971471808,
        "alt_km": 524.773312231001,
        "timestamp": "2025-12-27T03:58:42.931977+00:00",
        "meta_object_name": "TRANSPORTER-15DS",
        "meta_object_id": "2025-276DS",
        "meta_epoch": "2025-12-18T19:26:21.991200",
        "meta_mean_motion": 15.16535337,
        "meta_eccentricity": 0.00032319,
        "meta_inclination": 97.4427,
        "meta_ra_of_asc_node": 64.4586,
        "meta_arg_of_pericenter": 41.3734,
        "meta_mean_anomaly": 318.7744,
        "meta_ephemeris_type": 0,
        "meta_classification_type": "U",
        "meta_norad_cat_id": 66778,
        "meta_element_set_no": 999,
        "meta_rev_at_epoch": 304,
        "meta_bstar": 0.00025483693,
        "meta_mean_motion_dot": 4.904e-05,
        "meta_mean_motion_ddot": 0,
        "tle_line1": "1 66778U 25276DS  25352.80997675  .00004904  00000+0  25484-3 0  9996",
        "tle_line2": "2 66778  97.4427  64.4586 0003231  41.3734 318.7744 15.16535337  3043"
      },
      "geometry": {
        "type": "Point",
        "coordinates": [
          -116.47836971471808,
          -50.53555929759589
        ]
      }
    },
    {
      "type": "Feature",
      "properties": {
        "norad_id": 66791,
        "name": "STARLINK-35867",
        "group": "last-30-days",
        "lat": -11.344763073561698,
        "lon": 153.62333548493137,
        "alt_km": 444.3312207128092,
        "timestamp": "2025-12-27T03:58:42.931986+00:00",
        "meta_object_name": "STARLINK-35867",
        "meta_object_id": "2025-278A",
        "meta_epoch": "2025-12-26T20:00:01.999008",
        "meta_mean_motion": 15.40668766,
        "meta_eccentricity": 0.0001524,
        "meta_inclination": 43.0001,
        "meta_ra_of_asc_node": 167.9727,
        "meta_arg_of_pericenter": 302.0789,
        "meta_mean_anomaly": 355.2804,
        "meta_ephemeris_type": 0,
        "meta_classification_type": "U",
        "meta_norad_cat_id": 66791,
        "meta_element_set_no": 999,
        "meta_rev_at_epoch": 522,
        "meta_bstar": 0.0014973,
        "meta_mean_motion_dot": 0.00062693,
        "meta_mean_motion_ddot": 0,
        "tle_line1": "1 66791U 25278A   25360.83335647  .00062693  00000+0  14973-2 0  9999",
        "tle_line2": "2 66791  43.0001 167.9727 0001524 302.0789 355.2804 15.40668766  5224"
      },
      "geometry": {
        "type": "Point",
        "coordinates": [
          153.62333548493137,
          -11.344763073561698
        ]
      }
    },
    {
      "type": "Feature",
      "properties": {
        "norad_id": 66792,
        "name": "STARLINK-35990",
        "group": "last-30-days",
        "lat": 37.800946311559635,
        "lon": -137.78929770798672,
        "alt_km": 410.0327692365554,
        "timestamp": "2025-12-27T03:58:42.931997+00:00",
        "meta_object_name": "STARLINK-35990",
        "meta_object_id": "2025-278B",
        "meta_epoch": "2025-12-26T20:00:01.999008",
        "meta_mean_motion": 15.50573313,
        "meta_eccentricity": 0.0001513,
        "meta_inclination": 43,
        "meta_ra_of_asc_node": 167.8055,
        "meta_arg_of_pericenter": 265.4043,
        "meta_mean_anomaly": 100.8677,
        "meta_ephemeris_type": 0,
        "meta_classification_type": "U",
        "meta_norad_cat_id": 66792,
        "meta_element_set_no": 999,
        "meta_rev_at_epoch": 522,
        "meta_bstar": -0.00056356,
        "meta_mean_motion_dot": -0.00033256,
        "meta_mean_motion_ddot": 0,
        "tle_line1": "1 66792U 25278B   25360.83335647 -.00033256  00000+0 -56356-3 0  9997",
        "tle_line2": "2 66792  43.0000 167.8055 0001513 265.4043 100.8677 15.50573313  5226"
      },
      "geometry": {
        "type": "Point",
        "coordinates": [
          -137.78929770798672,
          37.800946311559635
        ]
      }
    },
    {
      "type": "Feature",
      "properties": {
        "norad_id": 66793,
        "name": "STARLINK-36051",
        "group": "last-30-days",
        "lat": 39.16465474420729,
        "lon": -133.20702968442973,
        "alt_km": 409.793501828688,
        "timestamp": "2025-12-27T03:58:42.932011+00:00",
        "meta_object_name": "STARLINK-36051",
        "meta_object_id": "2025-278C",
        "meta_epoch": "2025-12-26T20:00:01.999008",
        "meta_mean_motion": 15.50580413,
        "meta_eccentricity": 0.0001483,
        "meta_inclination": 43,
        "meta_ra_of_asc_node": 167.796,
        "meta_arg_of_pericenter": 271.2947,
        "meta_mean_anomaly": 98.8132,
        "meta_ephemeris_type": 0,
        "meta_classification_type": "U",
        "meta_norad_cat_id": 66793,
        "meta_element_set_no": 999,
        "meta_rev_at_epoch": 512,
        "meta_bstar": -0.00082001,
        "meta_mean_motion_dot": -0.00048155,
        "meta_mean_motion_ddot": 0,
        "tle_line1": "1 66793U 25278C   25360.83335647 -.00048155  00000+0 -82001-3 0  9998",
        "tle_line2": "2 66793  43.0000 167.7960 0001483 271.2947  98.8132 15.50580413  5125"
      },
      "geometry": {
        "type": "Point",
        "coordinates": [
          -133.20702968442973,
          39.16465474420729
        ]
      }
    }
  ]
}